{
  "norad_id": 66659,
  "name": "JACK K",
  "history": [
    {
      "epoch": "2026-03-28T18:08:25.012320Z",
      "apogee_km": 595.2726725908451,
      "perigee_km": 578.8160386019772,
      "latitude_deg": -4.4914457470236806e-05,
      "longitude_deg": -79.97524267114648,
      "height_km": 587.4342356315204,
      "semi_major_axis_km": 6965.181355596411,
      "eccentricity": 0.00118135,
      "inclination_deg": 97.7453,
      "raan_deg": 18.3007,
      "arg_perigee_deg": 288.8747,
      "mean_anomaly_deg": 71.1191,
      "mean_motion_rev_day": 14.93496189
    }
  ]
}