{"fetched_at":"2026-03-30T06:02:59Z","count":15439,"tles":[{"name":"JACK K","line1":"1 66659U 25274K   26087.75584505  .00003407  00000+0  32868-3 0  9997","line2":"2 66659  97.7453  18.3007 0011813 288.8747  71.1191 14.93496189 18223","category":"Other"}]}